*******************************************************************************
Ephemeris / WWW_USER Fri Mar  7 10:33:04 2025 Pasadena, USA      / Horizons    
*******************************************************************************
Target body name: (2017 SN16)                     {source: JPL#20}
Center body name: Earth (399)                     {source: DE441}
Center-site name: Mauna Kea
*******************************************************************************
Start time      : A.D. 2019-Jan-22 04:17:00.0000 UT      
Stop  time      : A.D. 2019-Jan-22 16:49:00.0000 UT      
Step-size       : 1 minutes
*******************************************************************************
Target pole/equ : undefined
Target radii    : undefined                                                    
Center geodetic : 204.5278, 19.8260847, 4.21024   {E-lon(deg),Lat(deg),Alt(km)}
Center cylindric: 204.5278, 6006.35451, 2151.0229 {E-lon(deg),Dxy(km),Dz(km)}
Center pole/equ : ITRF93                          {East-longitude positive}
Center radii    : 6378.137, 6378.137, 6356.752 km {Equator_a, b, pole_c}       
Target primary  : Sun
Vis. interferer : MOON (R_eq= 1737.400) km        {source: DE441}
Rel. light bend : Sun                             {source: DE441}
Rel. lght bnd GM: 1.3271E+11 km^3/s^2                                          
Small-body perts: Yes                             {source: SB441-N16}
Atmos refraction: NO (AIRLESS)
RA format       : HMS
Time format     : CAL 
Calendar mode   : Mixed Julian/Gregorian
RTS-only print  : NO       
EOP file        : eop.250306.p250602                                           
EOP coverage    : DATA-BASED 1962-JAN-20 TO 2025-MAR-06. PREDICTS-> 2025-JUN-01
Units conversion: 1 au= 149597870.700 km, c= 299792.458 km/s, 1 day= 86400.0 s 
Table cut-offs 1: Elevation (-90.0deg=NO ),Airmass (>38.000=NO), Daylight (YES)
Table cut-offs 2: Solar elongation (  0.0,180.0=NO ),Local Hour Angle( 0.0=NO )
Table cut-offs 3: RA/DEC angular rate (     0.0=NO )                           
*******************************************************************************
Initial IAU76/J2000 heliocentric ecliptic osculating elements (au, days, deg.):
  EPOCH=  2458305.5 ! 2018-Jul-06.00 (TDB)         Residual RMS= .23751        
   EC= .1454884975659386   QR= .8682464985612274   TP= 2458145.5722438502      
   OM= 2.759719470837934   W=  137.1017088998531   IN= 13.38264682844635       
  Equivalent ICRF heliocentric cartesian coordinates (au, au/d):
   X= 5.756755401261899E-01  Y=-7.953424559592890E-01  Z=-6.031561894536019E-01
  VX= 1.332076113263395E-02 VY= 5.454663564585547E-03 VZ= 3.896229736425836E-03
Asteroid physical parameters (km, seconds, rotational period in hours):        
   GM= n.a.                RAD= n.a.               ROTPER= n.a.                
   H= 23.34                G= .150                 B-V= n.a.                   
                           ALBEDO= n.a.            STYP= n.a.                  
*******************************************************************************
 Date__(UT)__HR:MN     R.A._________(ICRF)_________DEC
******************************************************
$$SOE
 2019-Jan-22 04:17 C   19 11 07.407722 +32 01 36.73186
 2019-Jan-22 04:18 C   19 11 07.334270 +32 01 35.04038
 2019-Jan-22 04:19 C   19 11 07.260875 +32 01 33.34891
 2019-Jan-22 04:20 C   19 11 07.187537 +32 01 31.65746
 2019-Jan-22 04:21 C   19 11 07.114256 +32 01 29.96603
 2019-Jan-22 04:22 C   19 11 07.041032 +32 01 28.27463
 2019-Jan-22 04:23 C   19 11 06.967865 +32 01 26.58325
 2019-Jan-22 04:24 C   19 11 06.894755 +32 01 24.89190
 2019-Jan-22 04:25 C   19 11 06.821701 +32 01 23.20058
 2019-Jan-22 04:26 C   19 11 06.748704 +32 01 21.50929
 2019-Jan-22 04:27 C   19 11 06.675764 +32 01 19.81803
 2019-Jan-22 04:28 C   19 11 06.602880 +32 01 18.12680
 2019-Jan-22 04:29 C   19 11 06.530053 +32 01 16.43561
 2019-Jan-22 04:30 C   19 11 06.457282 +32 01 14.74446
 2019-Jan-22 04:31 N   19 11 06.384568 +32 01 13.05335
 2019-Jan-22 04:32 N   19 11 06.311910 +32 01 11.36227
 2019-Jan-22 04:33 N   19 11 06.239308 +32 01 09.67124
 2019-Jan-22 04:34 N   19 11 06.166762 +32 01 07.98025
 2019-Jan-22 04:35 Ns  19 11 06.094273 +32 01 06.28930
 2019-Jan-22 04:36 N   19 11 06.021839 +32 01 04.59840
 2019-Jan-22 04:37 N   19 11 05.949461 +32 01 02.90755
 2019-Jan-22 04:38 N   19 11 05.877139 +32 01 01.21675
 2019-Jan-22 04:39 N   19 11 05.804873 +32 00 59.52601
 2019-Jan-22 04:40 N   19 11 05.732663 +32 00 57.83531
 2019-Jan-22 04:41 N   19 11 05.660509 +32 00 56.14467
 2019-Jan-22 04:42 N   19 11 05.588409 +32 00 54.45408
 2019-Jan-22 04:43 N   19 11 05.516366 +32 00 52.76356
 2019-Jan-22 04:44 N   19 11 05.444378 +32 00 51.07309
 2019-Jan-22 04:45 N   19 11 05.372445 +32 00 49.38268
 2019-Jan-22 04:46 N   19 11 05.300567 +32 00 47.69234
 2019-Jan-22 04:47 N   19 11 05.228745 +32 00 46.00206
 2019-Jan-22 04:48 N   19 11 05.156978 +32 00 44.31185
 2019-Jan-22 04:49 N   19 11 05.085266 +32 00 42.62170
 2019-Jan-22 04:50 N   19 11 05.013608 +32 00 40.93162
 2019-Jan-22 04:51 N   19 11 04.942006 +32 00 39.24161
 2019-Jan-22 04:52 N   19 11 04.870458 +32 00 37.55168
 2019-Jan-22 04:53 N   19 11 04.798965 +32 00 35.86182
 2019-Jan-22 04:54 N   19 11 04.727526 +32 00 34.17203
 2019-Jan-22 04:55 N   19 11 04.656142 +32 00 32.48232
 2019-Jan-22 04:56 N   19 11 04.584813 +32 00 30.79269
 2019-Jan-22 04:57 N   19 11 04.513537 +32 00 29.10314
 2019-Jan-22 04:58 Am  19 11 04.442316 +32 00 27.41367
 2019-Jan-22 04:59 Am  19 11 04.371149 +32 00 25.72429
 2019-Jan-22 05:00 Am  19 11 04.300036 +32 00 24.03499
 2019-Jan-22 05:01 Am  19 11 04.228977 +32 00 22.34577
 2019-Jan-22 05:02 Am  19 11 04.157972 +32 00 20.65665
 2019-Jan-22 05:03 Am  19 11 04.087020 +32 00 18.96761
 2019-Jan-22 05:04 Am  19 11 04.016122 +32 00 17.27866
 2019-Jan-22 05:05 Am  19 11 03.945278 +32 00 15.58981
 2019-Jan-22 05:06 Am  19 11 03.874487 +32 00 13.90105
 2019-Jan-22 05:07 Am  19 11 03.803749 +32 00 12.21238
 2019-Jan-22 05:08 Am  19 11 03.733065 +32 00 10.52381
 2019-Jan-22 05:09 Am  19 11 03.662433 +32 00 08.83534
 2019-Jan-22 05:10 Am  19 11 03.591855 +32 00 07.14698
 2019-Jan-22 05:11 Am  19 11 03.521330 +32 00 05.45871
 2019-Jan-22 05:12 Am  19 11 03.450857 +32 00 03.77054
 2019-Jan-22 05:13 Am  19 11 03.380437 +32 00 02.08248
 2019-Jan-22 05:14 Am  19 11 03.310070 +32 00 00.39453
 2019-Jan-22 05:15 Am  19 11 03.239755 +31 59 58.70668
 2019-Jan-22 05:16 Am  19 11 03.169492 +31 59 57.01895
 2019-Jan-22 05:17 Am  19 11 03.099282 +31 59 55.33132
 2019-Jan-22 05:18 Am  19 11 03.029124 +31 59 53.64381
 2019-Jan-22 05:19 Am  19 11 02.959018 +31 59 51.95641
 2019-Jan-22 05:20 Am  19 11 02.888963 +31 59 50.26912
 2019-Jan-22 05:21 Am  19 11 02.818961 +31 59 48.58195
 2019-Jan-22 05:22 Am  19 11 02.749010 +31 59 46.89490
 2019-Jan-22 05:23 Am  19 11 02.679111 +31 59 45.20797
 2019-Jan-22 05:24 Am  19 11 02.609263 +31 59 43.52116
 2019-Jan-22 05:25  m  19 11 02.539466 +31 59 41.83447
 2019-Jan-22 05:26  m  19 11 02.469721 +31 59 40.14791
 2019-Jan-22 05:27  m  19 11 02.400026 +31 59 38.46147
 2019-Jan-22 05:28  m  19 11 02.330383 +31 59 36.77516
 2019-Jan-22 05:29  m  19 11 02.260791 +31 59 35.08898
 2019-Jan-22 05:30  m  19 11 02.191249 +31 59 33.40293
 2019-Jan-22 05:31  m  19 11 02.121757 +31 59 31.71701
 2019-Jan-22 05:32  m  19 11 02.052317 +31 59 30.03122
 2019-Jan-22 05:33  m  19 11 01.982926 +31 59 28.34557
 2019-Jan-22 05:34  m  19 11 01.913586 +31 59 26.66005
 2019-Jan-22 05:35  m  19 11 01.844295 +31 59 24.97467
 2019-Jan-22 05:36  m  19 11 01.775055 +31 59 23.28943
 2019-Jan-22 05:37  m  19 11 01.705864 +31 59 21.60432
 2019-Jan-22 05:38  m  19 11 01.636723 +31 59 19.91936
 2019-Jan-22 05:39  m  19 11 01.567632 +31 59 18.23454
 2019-Jan-22 05:40  m  19 11 01.498590 +31 59 16.54987
 2019-Jan-22 05:41  m  19 11 01.429597 +31 59 14.86534
 2019-Jan-22 05:42  m  19 11 01.360654 +31 59 13.18096
 2019-Jan-22 05:43  m  19 11 01.291759 +31 59 11.49673
 2019-Jan-22 05:44  m  19 11 01.222913 +31 59 09.81265
 2019-Jan-22 05:45  m  19 11 01.154116 +31 59 08.12871
 2019-Jan-22 05:46  m  19 11 01.085368 +31 59 06.44494
 2019-Jan-22 05:47  m  19 11 01.016668 +31 59 04.76131
 2019-Jan-22 05:48  m  19 11 00.948016 +31 59 03.07784
 2019-Jan-22 05:49  m  19 11 00.879412 +31 59 01.39453
 2019-Jan-22 05:50  m  19 11 00.810857 +31 58 59.71138
 2019-Jan-22 05:51  m  19 11 00.742349 +31 58 58.02838
 2019-Jan-22 05:52  m  19 11 00.673889 +31 58 56.34555
 2019-Jan-22 05:53  m  19 11 00.605476 +31 58 54.66288
 2019-Jan-22 05:54  m  19 11 00.537111 +31 58 52.98037
 2019-Jan-22 05:55  m  19 11 00.468793 +31 58 51.29803
 2019-Jan-22 05:56  m  19 11 00.400523 +31 58 49.61585
 2019-Jan-22 05:57  m  19 11 00.332299 +31 58 47.93385
 2019-Jan-22 05:58  m  19 11 00.264122 +31 58 46.25201
 2019-Jan-22 05:59  m  19 11 00.195992 +31 58 44.57034
 2019-Jan-22 06:00  m  19 11 00.127908 +31 58 42.88884
 2019-Jan-22 06:01  m  19 11 00.059871 +31 58 41.20752
 2019-Jan-22 06:02  m  19 10 59.991880 +31 58 39.52637
 2019-Jan-22 06:03  m  19 10 59.923935 +31 58 37.84540
 2019-Jan-22 06:04  m  19 10 59.856036 +31 58 36.16460
 2019-Jan-22 06:05  m  19 10 59.788182 +31 58 34.48398
 2019-Jan-22 06:06  m  19 10 59.720374 +31 58 32.80354
 2019-Jan-22 06:07  m  19 10 59.652612 +31 58 31.12329
 2019-Jan-22 06:08  m  19 10 59.584895 +31 58 29.44321
 2019-Jan-22 06:09  m  19 10 59.517223 +31 58 27.76332
 2019-Jan-22 06:10  m  19 10 59.449596 +31 58 26.08361
 2019-Jan-22 06:11  m  19 10 59.382014 +31 58 24.40409
 2019-Jan-22 06:12  m  19 10 59.314476 +31 58 22.72476
 2019-Jan-22 06:13  m  19 10 59.246983 +31 58 21.04561
 2019-Jan-22 06:14  m  19 10 59.179534 +31 58 19.36666
 2019-Jan-22 06:15  m  19 10 59.112129 +31 58 17.68790
 2019-Jan-22 06:16  m  19 10 59.044769 +31 58 16.00933
 2019-Jan-22 06:17  m  19 10 58.977452 +31 58 14.33095
 2019-Jan-22 06:18  m  19 10 58.910178 +31 58 12.65277
 2019-Jan-22 06:19  m  19 10 58.842948 +31 58 10.97478
